

export async function fetchTLEs() {

    return `STARLINK-1007
1 44713U 19074A   24156.82459657  .00000816  00000+0  73650-4 0  9993
2 44713  53.0529 192.5476 0001172  90.8030 269.3093 15.06396363251855
STARLINK-1008
1 44714U 19074B   24157.13517451  .00006350  00000+0  44491-3 0  9995
2 44714  53.0519 191.1521 0001241  97.6985 262.4145 15.06393120252077
STARLINK-1009
1 44715U 19074C   24156.79237041 -.00000485  00000+0 -13676-4 0  9998
2 44715  53.0545 192.6942 0001336  86.7518 273.3623 15.06397043251840
STARLINK-1010
1 44716U 19074D   24156.81079537  .00000435  00000+0  48119-4 0  9999
2 44716  53.0530 192.6103 0001258  88.5207 271.5926 15.06398836251838
STARLINK-1011
1 44717U 19074E   24157.14069345  .00002181  00000+0  16523-3 0  9996
2 44717  53.0519 211.1316 0001388  83.4011 276.7135 15.06408079251795`


  const response = await fetch('https://celestrak.org/NORAD/elements/gp.php?GROUP=starlink&FORMAT=tle', {
    cache: "force-cache"
  });
  const text = await response.text();
  return text;
}